{
  "type": "FeatureCollection",
  "name": "Batas Administrasi Kota Bandung",
  "features": [
    {
      "type": "Feature",
      "properties": {
        "name": "Kota Bandung",
        "provinsi": "Jawa Barat",
        "luas_km2": 167.67
      },
      "geometry": {
        "type": "Polygon",
        "coordinates": [
          [
            [107.5689, -6.8523],
            [107.5912, -6.8456],
            [107.6234, -6.8412],
            [107.6567, -6.8456],
            [107.6845, -6.8567],
            [107.7089, -6.8734],
            [107.7189, -6.8956],
            [107.7234, -6.9234],
            [107.7189, -6.9512],
            [107.7089, -6.9767],
            [107.6912, -6.9967],
            [107.6678, -7.0089],
            [107.6345, -7.0134],
            [107.6012, -7.0089],
            [107.5723, -6.9967],
            [107.5512, -6.9767],
            [107.5389, -6.9512],
            [107.5345, -6.9234],
            [107.5389, -6.8956],
            [107.5512, -6.8734],
            [107.5689, -6.8523]
          ]
        ]
      }
    }
  ]
}
