{
  "type": "FeatureCollection",
  "name": "Zona Rawan Banjir Kota Bandung",
  "crs": {
    "type": "name",
    "properties": {
      "name": "urn:ogc:def:crs:OGC:1.3:CRS84"
    }
  },
  "features": [
    {
      "type": "Feature",
      "properties": {
        "name": "Dayeuhkolot - Baleendah",
        "type": "FLOOD",
        "riskLevel": "CRITICAL",
        "description": "Kawasan langganan banjir akibat luapan Sungai Citarum. Area ini merupakan cekungan dengan elevasi rendah yang sering terendam saat musim hujan.",
        "area": 8.5,
        "population": 125000,
        "kelurahan": "Dayeuhkolot",
        "kecamatan": "Dayeuhkolot",
        "mitigation": "Evakuasi ke dataran tinggi, hindari pemukiman di bantaran sungai, perbaikan sistem drainase"
      },
      "geometry": {
        "type": "Polygon",
        "coordinates": [
          [
            [107.6152, -6.9789],
            [107.6298, -6.9789],
            [107.6345, -6.9834],
            [107.6367, -6.9912],
            [107.6334, -6.9978],
            [107.6256, -7.0023],
            [107.6145, -7.0012],
            [107.6089, -6.9945],
            [107.6078, -6.9867],
            [107.6112, -6.9812],
            [107.6152, -6.9789]
          ]
        ]
      }
    },
    {
      "type": "Feature",
      "properties": {
        "name": "Cibiru - Ujungberung",
        "type": "FLOOD",
        "riskLevel": "HIGH",
        "description": "Daerah rawan banjir akibat luapan Sungai Cinambo dan Cisangkuy. Kondisi diperparah dengan minimnya daerah resapan air.",
        "area": 5.2,
        "population": 78000,
        "kelurahan": "Cibiru",
        "kecamatan": "Cibiru",
        "mitigation": "Pembangunan tanggul, normalisasi sungai, pembuatan kolam retensi"
      },
      "geometry": {
        "type": "Polygon",
        "coordinates": [
          [
            [107.7156, -6.9234],
            [107.7289, -6.9245],
            [107.7334, -6.9289],
            [107.7356, -6.9356],
            [107.7312, -6.9423],
            [107.7234, -6.9467],
            [107.7145, -6.9445],
            [107.7089, -6.9378],
            [107.7078, -6.9312],
            [107.7112, -6.9256],
            [107.7156, -6.9234]
          ]
        ]
      }
    },
    {
      "type": "Feature",
      "properties": {
        "name": "Gedebage",
        "type": "FLOOD",
        "riskLevel": "HIGH",
        "description": "Area dataran rendah yang sering mengalami genangan saat hujan lebat. Sistem drainase kurang memadai.",
        "area": 4.8,
        "population": 56000,
        "kelurahan": "Gedebage",
        "kecamatan": "Gedebage",
        "mitigation": "Perbaikan drainase, pembuatan sumur resapan, penataan kawasan"
      },
      "geometry": {
        "type": "Polygon",
        "coordinates": [
          [
            [107.6845, -6.9456],
            [107.6978, -6.9467],
            [107.7023, -6.9512],
            [107.7045, -6.9578],
            [107.7001, -6.9645],
            [107.6923, -6.9689],
            [107.6834, -6.9667],
            [107.6778, -6.9601],
            [107.6767, -6.9534],
            [107.6801, -6.9478],
            [107.6845, -6.9456]
          ]
        ]
      }
    },
    {
      "type": "Feature",
      "properties": {
        "name": "Rancasari - Buahbatu",
        "type": "FLOOD",
        "riskLevel": "MEDIUM",
        "description": "Kawasan dengan potensi banjir sedang, terutama saat curah hujan tinggi. Genangan biasanya surut dalam beberapa jam.",
        "area": 3.5,
        "population": 42000,
        "kelurahan": "Rancasari",
        "kecamatan": "Rancasari",
        "mitigation": "Pemeliharaan saluran drainase, resapan biopori, penghijauan"
      },
      "geometry": {
        "type": "Polygon",
        "coordinates": [
          [
            [107.6534, -6.9612],
            [107.6667, -6.9623],
            [107.6712, -6.9667],
            [107.6734, -6.9734],
            [107.669, -6.9801],
            [107.6612, -6.9845],
            [107.6523, -6.9823],
            [107.6467, -6.9756],
            [107.6456, -6.9689],
            [107.649, -6.9634],
            [107.6534, -6.9612]
          ]
        ]
      }
    },
    {
      "type": "Feature",
      "properties": {
        "name": "Bandung Kulon - Astanaanyar",
        "type": "FLOOD",
        "riskLevel": "MEDIUM",
        "description": "Wilayah dengan genangan periodik akibat limpasan Sungai Cikapundung dan anak sungainya.",
        "area": 2.8,
        "population": 35000,
        "kelurahan": "Cijerah",
        "kecamatan": "Bandung Kulon",
        "mitigation": "Normalisasi sungai, penyuluhan masyarakat, early warning system"
      },
      "geometry": {
        "type": "Polygon",
        "coordinates": [
          [
            [107.5723, -6.9234],
            [107.5856, -6.9245],
            [107.5901, -6.9289],
            [107.5923, -6.9356],
            [107.5879, -6.9423],
            [107.5801, -6.9467],
            [107.5712, -6.9445],
            [107.5656, -6.9378],
            [107.5645, -6.9312],
            [107.5679, -6.9256],
            [107.5723, -6.9234]
          ]
        ]
      }
    },
    {
      "type": "Feature",
      "properties": {
        "name": "Sungai Cikapundung Hulu",
        "type": "FLOOD",
        "riskLevel": "MEDIUM",
        "description": "Area bantaran Sungai Cikapundung bagian hulu yang rawan banjir bandang saat hujan ekstrem.",
        "area": 2.1,
        "population": 28000,
        "kelurahan": "Dago",
        "kecamatan": "Coblong",
        "mitigation": "Konservasi hutan, pembatasan pembangunan di sempadan sungai"
      },
      "geometry": {
        "type": "Polygon",
        "coordinates": [
          [
            [107.6112, -6.8734],
            [107.6189, -6.8745],
            [107.6234, -6.8789],
            [107.6256, -6.8856],
            [107.6212, -6.8923],
            [107.6134, -6.8967],
            [107.6045, -6.8945],
            [107.5989, -6.8878],
            [107.5978, -6.8812],
            [107.6012, -6.8756],
            [107.6112, -6.8734]
          ]
        ]
      }
    }
  ]
}
